GLOBALSTAR M068         
1 32266U 07048D   24312.63551263  .00000036  00000+0  77779-3 0  9999
2 32266  51.9882 257.6113 0001472  27.1598 143.3000 12.62807328789560
GLOBALSTAR M079         
1 37188U 10054A   24312.37315755 -.00000084  00000+0  10770-3 0  9995
2 37188  52.0027  95.0223 0001072 118.6903 258.9914 12.62266882648441
GLOBALSTAR M074         
1 37189U 10054B   24312.39925892 -.00000086  00000+0  10066-3 0  9997
2 37189  52.0006  94.2962 0000676 107.0093 271.4979 12.62258787649055
GLOBALSTAR M076         
1 37190U 10054C   24312.59257760 -.00000083  00000+0  11732-3 0  9991
2 37190  52.0018  93.8635 0000762 131.8851 282.3384 12.62273441648790
GLOBALSTAR M077         
1 37191U 10054D   24312.33768414 -.00000079  00000+0  13736-3 0  9998
2 37191  52.0089  51.4314 0000631 115.7904 280.0972 12.62266431649136
GLOBALSTAR M075         
1 37192U 10054E   24312.52070281 -.00000096  00000+0  43349-4 0  9991
2 37192  51.9920 136.4627 0000850  92.1141 297.0595 12.62268759647855
GLOBALSTAR M073         
1 37193U 10054F   24312.37226904 -.00000098  00000+0  33079-4 0  9991
2 37193  52.0079  50.5619 0000630 128.0347 306.1137 12.62272000649820
GLOBALSTAR M083         
1 37739U 11033A   24312.56372513 -.00000069  00000+0  19378-3 0  9997
2 37739  51.9882 359.0163 0000579 108.0178  56.7802 12.62267588618861
GLOBALSTAR M088         
1 37740U 11033B   24312.37985337 -.00000056  00000+0  26450-3 0  9997
2 37740  51.9735 265.2527 0000681  67.0435 102.6349 12.62264702614381
GLOBALSTAR M091         
1 37741U 11033C   24312.55209309 -.00000058  00000+0  25269-3 0  9995
2 37741  51.9993 227.8890 0001063  76.6198  94.5253 12.62270135615192
GLOBALSTAR M085         
1 37742U 11033D   24312.58343916 -.00000078  00000+0  14223-3 0  9992
2 37742  51.9847 179.0272 0001196  85.5367 289.3753 12.62269026615711
GLOBALSTAR M081         
1 37743U 11033E   24312.61047760 -.00000066  00000+0  21149-3 0  9997
2 37743  51.9942 181.5949 0001095  97.8496 280.0148 12.62263345615864
GLOBALSTAR M089         
1 37744U 11033F   24312.28812970 -.00000096  00000+0  43632-4 0  9999
2 37744  51.9899 136.8464 0000678 104.2453  66.9576 12.62272106616663
GLOBALSTAR M084         
1 38040U 11080A   24312.42480336 -.00000058  00000+0  25547-3 0  9996
2 38040  52.0033   3.5999 0000085 120.0375 253.0290 12.62270063594666
GLOBALSTAR M080         
1 38041U 11080B   24312.39850046 -.00000059  00000+0  25075-3 0  9999
2 38041  52.0087   5.2099 0000309 190.2849 182.6975 12.62268058594781
GLOBALSTAR M082         
1 38042U 11080C   24312.60159807 -.00000066  00000+0  21269-3 0  9990
2 38042  52.0087 320.0147 0000858  66.9779  89.6157 12.62269209595513
GLOBALSTAR M092         
1 38043U 11080D   24312.31083490 -.00000069  00000+0  19513-3 0  9995
2 38043  52.0102  51.2606 0000552 104.3277 290.4877 12.62269120593933
GLOBALSTAR M090         
1 38044U 11080E   24312.38923101 -.00000068  00000+0  19922-3 0  9998
2 38044  51.9893 314.7543 0000610  74.8444  76.6517 12.62270264595600
GLOBALSTAR M086         
1 38045U 11080F   24312.57425980 -.00000061  00000+0  23771-3 0  9992
2 38045  51.9907 314.7239 0000805 166.1191 347.1467 12.62269706595574
GLOBALSTAR M097         
1 39072U 13005A   24312.17141121 -.00000062  00000+0  23078-3 0  9991
2 39072  52.0045 230.2730 0000855  83.3444 276.7520 12.62266876542770
GLOBALSTAR M093         
1 39073U 13005B   24312.46140017 -.00000057  00000+0  26318-3 0  9991
2 39073  51.9808 223.0460 0001001  82.2887 277.8093 12.62267197542762
GLOBALSTAR M094         
1 39074U 13005C   24312.54064139 -.00000088  00000+0  90792-4 0  9993
2 39074  51.9930 136.9645 0001210 104.9977 255.1024 12.62265243544383
GLOBALSTAR M096         
1 39075U 13005D   24312.39543884 -.00000066  00000+0  20998-3 0  9992
2 39075  52.0057 185.7492 0001193  88.6039 271.4964 12.62264421543284
GLOBALSTAR M078         
1 39076U 13005E   24312.60614981 -.00000044  00000+0  33293-3 0  9992
2 39076  51.9872 269.9150 0001520  56.5743 303.5269 12.62265879541937
GLOBALSTAR M095         
1 39077U 13005F   24312.55384472 -.00000063  00000+0  22872-3 0  9998
2 39077  51.9798 267.3844 0001169  71.8727 288.2266 12.62267571541788
GLOBALSTAR M087         
1 52888U 22064A   24312.57571316 -.00000054  00000+0  14057-3 0  9991
2 52888  51.9763  68.3821 0009261  13.0883 347.0256 13.37592845116713
